NORAD_CAT_ID,OBJECT_NAME,OBJECT_TYPE,EPOCH,MEAN_MOTION,ECCENTRICITY,INCLINATION,RA_OF_ASC_NODE,ARG_OF_PERICENTER,MEAN_ANOMALY,BSTAR,MEAN_MOTION_DOT,MEAN_MOTION_DDOT,TLE_LINE0,TLE_LINE1,TLE_LINE2,SEMIMAJOR_AXIS,PERIOD,APOGEE,PERIGEE,DECAYED
51793.0,STARLINK-3633,PAYLOAD,2022-03-02 16:00:00,15.81341104,0.0001114,53.2179,118.8446,58.0197,248.5536,-0.0044516999999999,-0.00818131,0.0,0 STARLINK-3633,1 51793U 22017AB  22061.66667824 -.00818131  00000-0 -44517-2 0  9990,2 51793  53.2179 118.8446 0001114  58.0197 248.5536 15.81341104  2073,6704.784000000002,91.062,327.396,325.902,0.0
51793.0,STARLINK-3633,PAYLOAD,2022-03-03 06:00:00,15.80283843,0.0001152,53.2176,115.9232,50.6476,337.5676,-0.005068,-0.0088022999999999,0.0,0 STARLINK-3633,1 51793U 22017AB  22062.25001157 -.00880230  00000-0 -50680-2 0  9994,2 51793  53.2176 115.9232 0001152  50.6476 337.5676 15.80283843  2169,6707.774,91.123,330.412,328.867,0.0
51793.0,STARLINK-3633,PAYLOAD,2022-03-03 14:00:01,15.79647496,0.0001106,53.2174,114.2588,65.9574,59.3114,-0.0051427,-0.00868565,0.0,0 STARLINK-3633,1 51793U 22017AB  22062.58334491 -.00868565  00000-0 -51427-2 0  9997,2 51793  53.2174 114.2588 0001106  65.9574  59.3114 15.79647496  1420,6709.576,91.16,332.18300000000005,330.699,0.0
51793.0,STARLINK-3633,PAYLOAD,2022-03-03 22:00:00,15.79022606,0.0001207,53.2177,112.592,64.1215,157.4427,-0.0053373999999999,-0.00875328,0.0,0 STARLINK-3633,1 51793U 22017AB  22062.91667824 -.00875328  00000-0 -53374-2 0  9991,2 51793  53.2177 112.5920 0001207  64.1215 157.4427 15.79022606  1471,6711.346,91.196,334.021,332.401,0.0
51793.0,STARLINK-3633,PAYLOAD,2022-03-04 06:00:02,15.78395237,0.0001242,53.2178,110.9295,48.45,268.7187,-0.0055142,-0.00878523,0.0,0 STARLINK-3633,1 51793U 22017AB  22063.25002315 -.00878523  00000-0 -55142-2 0  9992,2 51793  53.2178 110.9295 0001242  48.4500 268.7187 15.78395237  2326,6713.124,91.232,335.8230000000001,334.155,0.0
51793.0,STARLINK-3633,PAYLOAD,2022-03-04 14:00:01,15.77761786,0.0001078,53.2174,109.2695,59.9788,351.9736,-0.0056223,-0.00871142,0.0,0 STARLINK-3633,1 51793U 22017AB  22063.58335648 -.00871142  00000-0 -56223-2 0  9997,2 51793  53.2174 109.2695 0001078  59.9788 351.9736 15.77761786  1586,6714.920999999999,91.269,337.51,336.0619999999999,0.0
51793.0,STARLINK-3633,PAYLOAD,2022-03-04 22:00:00,15.77133166,0.0001235,53.2174,107.6076,44.1948,101.7202,-0.0057892,-0.00871959,0.0,0 STARLINK-3633,1 51793U 22017AB  22063.91667824 -.00871959  00000-0 -57892-2 0  9997,2 51793  53.2174 107.6076 0001235  44.1948 101.7202 15.77133166  1630,6716.705,91.305,339.399,337.74,0.0
51793.0,STARLINK-3633,PAYLOAD,2022-03-05 06:00:00,15.76505609,0.000121,53.2176,105.9499,54.1092,185.0758,-0.0059758,-0.00874844,0.0,0 STARLINK-3633,1 51793U 22017AB  22064.25001157 -.00874844  00000-0 -59758-2 0  9995,2 51793  53.2176 105.9499 0001210  54.1092 185.0758 15.76505609  2474,6718.486999999999,91.341,341.165,339.539,0.0
51793.0,STARLINK-3633,PAYLOAD,2022-03-05 14:00:01,15.75874824,0.0001007,53.2173,104.2944,69.8208,261.8784,-0.006121,-0.008716,0.0,0 STARLINK-3633,1 51793U 22017AB  22064.58334491 -.00871600  00000-0 -61210-2 0  9994,2 51793  53.2173 104.2944 0001007  69.8208 261.8784 15.75874824  1742,6720.28,91.378,342.82199999999995,341.468,0.0
51793.0,STARLINK-3633,PAYLOAD,2022-03-05 22:00:01,15.75245259,0.000117,53.2175,102.6368,48.4379,15.0872,-0.0062942,-0.0087172,0.0,0 STARLINK-3633,1 51793U 22017AB  22064.91668981 -.00871720  00000-0 -62942-2 0  9991,2 51793  53.2175 102.6368 0001170  48.4379  15.0872 15.75245259  1795,6722.07,91.414,344.722,343.149,0.0
51793.0,STARLINK-3633,PAYLOAD,2022-03-06 06:00:00,15.74616728,0.0001528,53.2176,100.9839,42.3616,112.0995,-0.0064768,-0.00872617,0.0,0 STARLINK-3633,1 51793U 22017AB  22065.25001157 -.00872617  00000-0 -64768-2 0  9999,2 51793  53.2176 100.9839 0001528  42.3616 112.0995 15.74616728  2634,6723.859,91.451,346.751,344.69699999999995,0.0
51793.0,STARLINK-3633,PAYLOAD,2022-03-06 14:00:01,15.73968099,0.0001254,53.2172,99.3327,62.6781,182.0326,-0.006312,-0.00830802,0.0,0 STARLINK-3633,1 51793U 22017AB  22065.58334491 -.00830802  00000-0 -63120-2 0  9996,2 51793  53.2172  99.3327 0001254  62.6781 182.0326 15.73968099  1899,6725.706,91.489,348.415,346.728,0.0
51793.0,STARLINK-3633,PAYLOAD,2022-03-06 22:00:00,15.73226538,0.0001250999999999,53.2173,97.68,57.1385,277.0725,-0.00026145,-0.00037192,0.0,0 STARLINK-3633,1 51793U 22017AB  22065.91667824 -.00037192  00000-0 -26145-3 0  9990,2 51793  53.2173  97.6800 0001251  57.1385 277.0725 15.73226538  2741,6727.82,91.532,350.526,348.843,0.0
51793.0,STARLINK-3633,PAYLOAD,2022-03-07 12:00:00,15.73203552,0.000146,53.2173,94.7956,42.1737,357.6813,1.083e-05,9e-06,0.0,0 STARLINK-3633,1 51793U 22017AB  22066.50001157  .00000900  00000-0  10830-4 0  9997,2 51793  53.2173  94.7956 0001460  42.1737 357.6813 15.73203552  2832,6727.885,91.533,350.732,348.76800000000014,0.0
51793.0,STARLINK-3633,PAYLOAD,2022-03-07 22:00:00,15.73154081,0.0001318,53.2201,92.738,53.3315,187.9169,0.00070207,0.00098882,0.0,0 STARLINK-3633,1 51793U 22017AB  22066.91667824  .00098882  00000-0  70207-3 0  9990,2 51793  53.2201  92.7380 0001318  53.3315 187.9169 15.73154081  2897,6728.026,91.536,350.778,349.004,0.0
51793.0,STARLINK-3633,PAYLOAD,2022-03-08 14:00:01,15.73239371,0.0001541,53.2197,89.4411,45.6118,13.5146,-0.00042556,-0.00060022,0.0,0 STARLINK-3633,1 51793U 22017AB  22067.58334491 -.00060022  00000-0 -42556-3 0  9998,2 51793  53.2197  89.4411 0001541  45.6118  13.5146 15.73239371  3001,6727.783,91.531,350.685,348.611,0.0
51793.0,STARLINK-3633,PAYLOAD,2022-03-08 22:00:00,15.73131398,0.0001386999999999,53.2197,87.7899,57.7508,90.3291,0.00039841,0.0005549999999999,0.0,0 STARLINK-3633,1 51793U 22017AB  22067.91667824  .00055500  00000-0  39841-3 0  9990,2 51793  53.2197  87.7899 0001387  57.7508  90.3291 15.73131398  2268,6728.090999999999,91.537,350.889,349.023,0.0
51793.0,STARLINK-3633,PAYLOAD,2022-03-09 14:00:01,15.73228348,0.0001544,53.2186,84.4935,49.3879,276.4665,-8.0906e-05,-0.00011973,0.0,0 STARLINK-3633,1 51793U 22017AB  22068.58334491 -.00011973  00000-0 -80906-4 0  9992,2 51793  53.2186  84.4935 0001544  49.3879 276.4665 15.73228348  2370,6727.814,91.532,350.718,348.641,0.0
51793.0,STARLINK-3633,PAYLOAD,2022-03-09 16:00:00,15.73256246,0.0001525,53.2185,84.0804,51.7379,26.3443,-0.00066733,-0.00093468,0.0,0 STARLINK-3633,1 51793U 22017AB  22068.66667824 -.00093468  00000-0 -66733-3 0  9990,2 51793  53.2185  84.0804 0001525  51.7379  26.3443 15.73256246  3174,6727.735,91.53,350.626,348.574,0.0
51793.0,STARLINK-3633,PAYLOAD,2022-03-09 22:00:01,15.73157104,0.0001339,53.2183,82.8418,57.1402,357.7464,0.00056698,0.00079562,0.0,0 STARLINK-3633,1 51793U 22017AB  22068.91668981  .00079562  00000-0  56698-3 0  9999,2 51793  53.2183  82.8418 0001339  57.1402 357.7464 15.73157104  2423,6728.017,91.536,350.783,348.982,0.0
51793.0,STARLINK-3633,PAYLOAD,2022-03-10 06:00:00,15.73247243,0.0001446,53.2184,81.1941,50.7962,92.9363,-0.00041233,-0.00058206,0.0,0 STARLINK-3633,1 51793U 22017AB  22069.25001157 -.00058206  00000-0 -41233-3 0  9996,2 51793  53.2184  81.1941 0001446  50.7962  92.9363 15.73247243  3269,6727.76,91.53,350.598,348.653,0.0
51793.0,STARLINK-3633,PAYLOAD,2022-03-10 14:00:01,15.7319239,0.00014,53.2179,79.5449,44.3294,188.3677,0.0002557,0.00035405,0.0,0 STARLINK-3633,1 51793U 22017AB  22069.58334491  .00035405  00000-0  25570-3 0  9992,2 51793  53.2179  79.5449 0001400  44.3294 188.3677 15.73192390  2533,6727.917,91.534,350.724,348.84,0.0
51793.0,STARLINK-3633,PAYLOAD,2022-03-10 20:00:01,15.73214563,0.000125,53.2182,78.3064,53.1513,156.2444,8.1427e-05,0.00010829,0.0,0 STARLINK-3633,1 51793U 22017AB  22069.83334491  .00010829  00000-0  81427-4 0  9997,2 51793  53.2182  78.3064 0001250  53.1513 156.2444 15.73214563  3356,6727.854,91.532,350.56,348.87800000000016,0.0
51793.0,STARLINK-3633,PAYLOAD,2022-03-10 22:00:01,15.73218699,0.0001271,53.218,77.8937,56.2338,265.4651,-4.253999999999999e-06,-1.217e-05,0.0,0 STARLINK-3633,1 51793U 22017AB  22069.91668981 -.00001217  00000-0 -42540-5 0  9997,2 51793  53.2180  77.8937 0001271  56.2338 265.4651 15.73218699  2580,6727.842,91.532,350.56199999999984,348.852,0.0
51793.0,STARLINK-3633,PAYLOAD,2022-03-11 12:00:00,15.73259568,0.0001465,53.2182,75.0096,47.8697,339.44699999999995,-2.8965e-05,-4.694e-05,0.0,0 STARLINK-3633,1 51793U 22017AB  22070.50001157 -.00004694  00000-0 -28965-4 0  9996,2 51793  53.2182  75.0096 0001465  47.8697 339.4470 15.73259568  3466,6727.725,91.53,350.576,348.605,0.0
51793.0,STARLINK-3633,PAYLOAD,2022-03-11 22:00:00,15.73228547,0.0001138,53.2185,72.9452,52.7175,175.8389,-1.4831e-05,-2.703e-05,0.0,0 STARLINK-3633,1 51793U 22017AB  22070.91667824 -.00002703  00000-0 -14831-4 0  9996,2 51793  53.2185  72.9452 0001138  52.7175 175.8389 15.73228547  2748,6727.814,91.532,350.444,348.913,0.0
51793.0,STARLINK-3633,PAYLOAD,2022-03-12 06:00:00,15.73237212,0.0001303,53.2186,71.2975,46.8247,270.6838,-0.00080406,-0.0011215,0.0,0 STARLINK-3633,1 51793U 22017AB  22071.25001157 -.00112150  00000-0 -80406-3 0  9993,2 51793  53.2186  71.2975 0001303  46.8247 270.6838 15.73237212  3584,6727.7890000000025,91.531,350.531,348.777,0.0
51793.0,STARLINK-3633,PAYLOAD,2022-03-12 14:00:01,15.73206131,8.37e-05,53.2171,69.6385,53.3161,352.786,-1.8409e-05,-3.202e-05,0.0,0 STARLINK-3633,1 51793U 22017AB  22071.58334491 -.00003202  00000-0 -18409-4 0  9991,2 51793  53.2171  69.6385 0000837  53.3161 352.7860 15.73206131  3632,6727.878000000002,91.533,350.306,349.18,0.0
51793.0,STARLINK-3633,PAYLOAD,2022-03-12 22:00:00,15.73200897,0.0001189,53.2182,67.9971,58.6059,76.7068,3.6918e-05,4.564e-05,0.0,0 STARLINK-3633,1 51793U 22017AB  22071.91667824  .00004564  00000-0  36918-4 0  9992,2 51793  53.2182  67.9971 0001189  58.6059  76.7068 15.73200897  3682,6727.893,91.533,350.55800000000005,348.958,0.0
